{
    "links": {
        "self": "http://www.neowsapp.com/rest/v1/neo/3733261?api_key=iIulBulltgU6a56xZRHN4H3l9WmuAYTsLGpBGhQ2"
    },
    "id": "3733261",
    "neo_reference_id": "3733261",
    "name": "(2015 VA2)",
    "designation": "2015 VA2",
    "nasa_jpl_url": "http://ssd.jpl.nasa.gov/sbdb.cgi?sstr=3733261",
    "absolute_magnitude_h": 24.2,
    "estimated_diameter": {
        "kilometers": {
            "estimated_diameter_min": 0.0384197891,
            "estimated_diameter_max": 0.0859092601
        },
        "meters": {
            "estimated_diameter_min": 38.4197891064,
            "estimated_diameter_max": 85.9092601232
        },
        "miles": {
            "estimated_diameter_min": 0.0238729428,
            "estimated_diameter_max": 0.0533815229
        },
        "feet": {
            "estimated_diameter_min": 126.0491808919,
            "estimated_diameter_max": 281.8545369825
        }
    },
    "is_potentially_hazardous_asteroid": false,
    "close_approach_data": [
        {
            "close_approach_date": "2015-10-20",
            "close_approach_date_full": "2015-Oct-20 14:20",
            "epoch_date_close_approach": 1445350800000,
            "relative_velocity": {
                "kilometers_per_second": "11.2850169701",
                "kilometers_per_hour": "40626.0610924234",
                "miles_per_hour": "25243.4544604561"
            },
            "miss_distance": {
                "astronomical": "0.0890859595",
                "lunar": "34.6544382455",
                "kilometers": "13327069.788106265",
                "miles": "8281057.168605857"
            },
            "orbiting_body": "Earth"
        }
    ],
    "orbital_data": {
        "orbit_id": "7",
        "orbit_determination_date": "2017-04-06 08:30:58",
        "first_observation_date": "2015-11-03",
        "last_observation_date": "2015-11-14",
        "data_arc_in_days": 11,
        "observations_used": 43,
        "orbit_uncertainty": "8",
        "minimum_orbit_intersection": ".00925423",
        "jupiter_tisserand_invariant": "4.141",
        "epoch_osculation": "2457332.5",
        "eccentricity": ".4281189782241022",
        "semi_major_axis": "1.666119902852628",
        "inclination": "5.71936847852932",
        "ascending_node_longitude": "20.28914236252404",
        "orbital_period": "785.5210099135537",
        "perihelion_distance": ".9528223524445207",
        "perihelion_argument": "321.6584697370115",
        "aphelion_distance": "2.379417453260736",
        "perihelion_time": "2457282.967985516233",
        "mean_anomaly": "22.70025243006355",
        "mean_motion": ".4582945528594046",
        "equinox": "J2000",
        "orbit_class": {
            "orbit_class_type": "APO",
            "orbit_class_description": "Near-Earth asteroid orbits which cross the Earth’s orbit similar to that of 1862 Apollo",
            "orbit_class_range": "a (semi-major axis) > 1.0 AU; q (perihelion) < 1.017 AU"
        }
    },
    "is_sentry_object": false
}